     2.10           NAVIGATION DATA                         RINEX VERSION / TYPE
GS25 V7.00                              2018 08 01 07:39    PGM / RUN BY / DATE 
   4.6566D-09  1.4901D-08 -5.9605D-08 -5.9605D-08           ION ALPHA           
   7.7824D+04  4.9152D+04 -6.5536D+04 -3.2768D+05           ION BETA            
    0.000000000000D+00 8.881784197001D-16   405504     2012 DELTA-UTC: A0,A1,T,W
    18                                                      LEAP SECONDS        
                                                            END OF HEADER       
28 18 08 01 14 00  0.0 7.353015244007D-04 2.614797267597D-12 0.000000000000D+00
    4.900000000000D+01-5.843750000000D+00 3.828730910582D-09 3.013897482230D+00
   -3.967434167862D-07 1.947001682129D-02 1.059845089912D-05 5.153688812256D+03
    3.096000000000D+05 4.079192876816D-07 3.942533707154D-01-1.490116119385D-08
    9.855860414090D-01 1.822500000000D+02-1.516790069720D+00-7.396022359733D-09
   -2.982267080537D-10 1.000000000000D+00 2.012000000000D+03 0.000000000000D+00
    2.800000000000D+00 0.000000000000D+00-1.117587089539D-08 4.900000000000D+01
    3.089100000000D+05 0.000000000000D+00
22 18 08 01 14 00  0.0-4.759104922414D-04-1.170974428533D-11 0.000000000000D+00
    7.300000000000D+01-7.834375000000D+01 5.208074080047D-09 1.381389092949D+00
   -4.384666681290D-06 7.223449996673D-03 8.825212717056D-06 5.153756124496D+03
    3.096000000000D+05-9.313225746155D-09-2.895524177016D+00-1.545995473862D-07
    9.258733710051D-01 1.921250000000D+02-1.503098541882D+00-8.409636009381D-09
   -2.928693420408D-10 1.000000000000D+00 2.012000000000D+03 0.000000000000D+00
    2.000000000000D+00 0.000000000000D+00-1.816079020500D-08 7.300000000000D+01
    3.090000000000D+05 0.000000000000D+00
28 18 08 01 16 00  0.0 7.353196851909D-04 2.614797267597D-12 0.000000000000D+00
    5.000000000000D+01 5.125000000000D+00 3.809444392935D-09-2.219155226574D+00
    3.818422555923D-07 1.947214244865D-02 9.862706065178D-06 5.153684717178D+03
    3.168000000000D+05 2.402812242508D-07 3.941994914425D-01 2.253800630569D-07
    9.855848959441D-01 1.945625000000D+02-1.516754096565D+00-7.353877747097D-09
   -1.242908915002D-10 1.000000000000D+00 2.012000000000D+03 0.000000000000D+00
    2.800000000000D+00 0.000000000000D+00-1.117587089539D-08 5.000000000000D+01
    3.096000000000D+05 0.000000000000D+00
20 18 08 01 16 00  0.0 5.134134553373D-04 6.821210263297D-13 0.000000000000D+00
    4.100000000000D+01-8.918750000000D+01 5.192359139743D-09 8.622941759336D-01
   -4.930421710014D-06 4.075094126165D-03 8.361414074898D-06 5.153675130844D+03
    3.168000000000D+05 7.450580596924D-08-2.945229893813D+00-6.891787052155D-08
    9.291464263810D-01 2.051875000000D+02 2.065905133653D+00-8.483924818094D-09
   -4.121600252623D-10 1.000000000000D+00 2.012000000000D+03 0.000000000000D+00
    2.000000000000D+00 0.000000000000D+00-8.381903171539D-09 4.100000000000D+01
    3.096000000000D+05 0.000000000000D+00
32 18 08 01 15 59 44.0-4.621124826372D-04 8.981260180008D-12 0.000000000000D+00
    6.000000000000D+00 3.000000000000D+01 4.393754446080D-09-2.419958124124D+00
    1.696869730949D-06 2.297655679286D-03 9.682029485703D-06 5.153690809250D+03
    3.167840000000D+05-3.166496753693D-08-1.794941461831D+00-9.313225746155D-09
    9.567228769023D-01 1.906250000000D+02-2.524455320737D+00-7.903186342291D-09
    3.668009930194D-10 1.000000000000D+00 2.012000000000D+03 0.000000000000D+00
    2.000000000000D+00 0.000000000000D+00 4.656612873077D-10 6.000000000000D+00
    3.096000000000D+05 0.000000000000D+00
10 18 08 01 16 00  0.0 1.879534684122D-04-7.958078640513D-13 0.000000000000D+00
    9.900000000000D+01-7.828125000000D+01 4.334466262204D-09-1.064241716179D+00
   -4.172325134277D-06 3.674422507174D-03 9.557232260704D-06 5.153669494629D+03
    3.168000000000D+05 1.415610313416D-07-2.837000159736D+00-1.266598701477D-07
    9.617932880596D-01 1.995937500000D+02-2.770644299336D+00-7.946759585863D-09
   -3.493002640438D-10 1.000000000000D+00 2.012000000000D+03 0.000000000000D+00
    2.000000000000D+00 0.000000000000D+00 1.862645149231D-09 9.900000000000D+01
    3.096000000000D+05 0.000000000000D+00
27 18 08 01 16 00  0.0 3.571589477360D-04-2.728484105319D-12 0.000000000000D+00
    9.300000000000D+01 5.846875000000D+01 4.172673808613D-09-3.130535595442D+00
    3.015622496605D-06 6.010243669152D-03 8.424744009972D-06 5.153691181183D+03
    3.168000000000D+05-8.754432201385D-08 1.350461148310D+00-8.568167686462D-08
    9.775404410888D-01 2.274375000000D+02 4.565577760468D-01-7.797824810703D-09
    2.789401904071D-10 1.000000000000D+00 2.012000000000D+03 0.000000000000D+00
    2.000000000000D+00 0.000000000000D+00 1.862645149231D-09 9.300000000000D+01
    3.096000000000D+05 0.000000000000D+00
 1 18 08 01 16 00  0.0-7.180124521255D-05-3.979039320257D-12 0.000000000000D+00
    8.000000000000D+01-1.637500000000D+01 4.700195782020D-09 9.701573115176D-01
   -6.314367055893D-07 8.043621433899D-03 3.794208168983D-06 5.153665914536D+03
    3.168000000000D+05 2.980232238770D-08 2.407084430397D+00 1.285225152969D-07
    9.720695034423D-01 3.113125000000D+02 6.721793110578D-01-8.438565785851D-09
   -1.596495071856D-10 1.000000000000D+00 2.012000000000D+03 0.000000000000D+00
    2.800000000000D+00 0.000000000000D+00 5.587935447693D-09 8.000000000000D+01
    3.096000000000D+05 0.000000000000D+00
22 18 08 01 16 00  0.0-4.759947769344D-04-1.170974428533D-11 0.000000000000D+00
    9.400000000000D+01-7.643750000000D+01 5.223789020352D-09 2.431413373944D+00
   -3.993511199951D-06 7.223384105600D-03 8.199363946915D-06 5.153757589340D+03
    3.168000000000D+05 7.450580596924D-08-2.895583995736D+00-5.029141902924D-08
    9.258716169664D-01 1.980937500000D+02-1.502988163250D+00-8.296774165375D-09
   -3.210848030423D-10 1.000000000000D+00 2.012000000000D+03 0.000000000000D+00
    2.000000000000D+00 0.000000000000D+00-1.816079020500D-08 9.400000000000D+01
    3.096000000000D+05 0.000000000000D+00
 8 18 08 01 16 00  0.0-1.101726666093D-04-1.364242052659D-12 0.000000000000D+00
    5.000000000000D+00 6.056250000000D+01 4.371967824294D-09-2.792171719651D+00
    3.263354301453D-06 3.455223399214D-03 7.973983883858D-06 5.153607223511D+03
    3.168000000000D+05-6.519258022308D-08 1.341475380280D+00 1.303851604462D-08
    9.693367519894D-01 2.315937500000D+02-3.989976345273D-01-7.933901907432D-09
    2.910835533698D-10 1.000000000000D+00 2.012000000000D+03 0.000000000000D+00
    2.000000000000D+00 0.000000000000D+00 5.122274160385D-09 5.000000000000D+00
    3.096000000000D+05 0.000000000000D+00
18 18 08 01 16 00  0.0 4.062289372087D-05 4.547473508865D-12 0.000000000000D+00
    6.500000000000D+01-1.168750000000D+01 5.241646907062D-09 7.290873904906D-01
   -5.569308996201D-07 1.487471559085D-02 3.913417458534D-06 5.153636438370D+03
    3.168000000000D+05-1.844018697739D-07 2.358493765852D+00 8.381903171539D-08
    9.504459679467D-01 3.021250000000D+02 1.329816920898D+00-8.843939814163D-09
   -1.067901625246D-10 1.000000000000D+00 2.012000000000D+03 0.000000000000D+00
    2.000000000000D+00 0.000000000000D+00-6.519258022308D-09 6.500000000000D+01
    3.096000000000D+05 0.000000000000D+00
11 18 08 01 15 59 44.0-7.271706126630D-04 2.046363078989D-12 0.000000000000D+00
    4.200000000000D+01 2.962500000000D+01 6.292404961067D-09 3.144090398957D-01
    1.627951860428D-06 1.703915686812D-02 4.157423973083D-06 5.153644355774D+03
    3.167840000000D+05-1.806765794754D-07 1.975653049171D+00-7.823109626770D-08
    9.059494288644D-01 2.738125000000D+02 1.790969302775D+00-9.391105462952D-09
    1.432202514126D-10 1.000000000000D+00 2.012000000000D+03 0.000000000000D+00
    2.000000000000D+00 0.000000000000D+00-1.210719347000D-08 4.200000000000D+01
    3.096000000000D+05 0.000000000000D+00
14 18 08 01 16 00  0.0-9.765429422259D-05 0.000000000000D+00 0.000000000000D+00
    7.700000000000D+01 3.178125000000D+01 4.305893643468D-09 2.852234331763D+00
    1.689419150352D-06 1.007443666458D-02 9.110197424889D-06 5.153610588074D+03
    3.168000000000D+05 7.823109626770D-08-1.709845151239D+00-8.195638656616D-08
    9.605621605725D-01 2.009375000000D+02-1.945050877371D+00-7.746036939245D-09
    3.557291032593D-10 1.000000000000D+00 2.012000000000D+03 0.000000000000D+00
    2.800000000000D+00 0.000000000000D+00-9.778887033463D-09 7.700000000000D+01
    3.097800000000D+05 0.000000000000D+00
14 18 08 01 15 59 44.0-9.765475988388D-05 0.000000000000D+00 0.000000000000D+00
    5.000000000000D+00 3.178125000000D+01 4.305893643468D-09 2.849900278152D+00
    1.689419150352D-06 1.007443608250D-02 9.110197424889D-06 5.153610582352D+03
    3.167840000000D+05 7.823109626770D-08-1.709845006411D+00-8.195638656616D-08
    9.605621488691D-01 2.009375000000D+02-1.945050586250D+00-7.745679781510D-09
    3.560862609935D-10 1.000000000000D+00 2.012000000000D+03 0.000000000000D+00
    2.000000000000D+00 0.000000000000D+00-9.778887033463D-09 5.000000000000D+00
    3.109500000000D+05 0.000000000000D+00
 3 18 08 01 16 00  0.0 1.147780567408D-04 6.025402399246D-12 0.000000000000D+00
    6.600000000000D+01-6.675000000000D+01 4.426255799892D-09 1.245335640085D-02
   -3.578141331673D-06 1.587823266163D-03 8.963048458099D-06 5.153713773727D+03
    3.168000000000D+05-2.235174179077D-08-2.833586501840D+00 5.587935447693D-09
    9.617120375894D-01 2.041250000000D+02 5.308435214091D-01-8.040692069956D-09
   -2.950122884460D-10 1.000000000000D+00 2.012000000000D+03 0.000000000000D+00
    2.000000000000D+00 0.000000000000D+00 1.862645149231D-09 6.600000000000D+01
    3.122700000000D+05 0.000000000000D+00
